STARLINK-2238           
1 48584U 21041AH  25163.57212964  .00000604  00000+0  59449-4 0  9994
2 48584  53.0546 274.2206 0001118  93.5114 266.6003 15.06390369224745
STARLINK-2241           
1 48586U 21041AK  25162.71331762  .00000998  00000+0  85884-4 0  9997
2 48586  53.0547 278.0768 0001201  91.5679 268.5448 15.06389916224212
STARLINK-2245           
1 48589U 21041AN  25163.55463424  .00001541  00000+0  12233-3 0  9996
2 48589  53.0547 264.3023 0001294  94.6748 265.4389 15.06391999224933
STARLINK-2249           
1 48592U 21041AR  25163.56848884  .00005415  00000+0  38213-3 0  9998
2 48592  53.0542 274.4746 0001130  84.9605 275.1513 15.06398877224646
STARLINK-2250           
1 48593U 21041AS  25163.55371589  .00000388  00000+0  44946-4 0  9996
2 48593  53.0550 274.3065 0001320 102.9578 257.1559 15.06404920224647
STARLINK-2251           
1 48594U 21041AT  25163.51595264  .00000997  00000+0  85860-4 0  9997
2 48594  53.0540 244.5613 0001067  87.5100 272.6011 15.06385905225212
STARLINK-2252           
1 48595U 21041AU  25163.53528437  .00001093  00000+0  92303-4 0  9996
2 48595  53.0554 274.3876 0001232  98.0087 262.1042 15.06387754225611
STARLINK-2253           
1 48596U 21041AV  25163.55739927  .00004045  00000+0  29027-3 0  9999
2 48596  53.0548 274.2886 0001177  99.5895 260.5227 15.06399278224807
STARLINK-2255           
1 48597U 21041AW  25163.56476720  .00000944  00000+0  82217-4 0  9995
2 48597  53.0551 274.2582 0001182  85.6392 274.4732 15.06405698225618
STARLINK-2713           
1 48602U 21041BB  25163.56151809  .00006054  00000+0  42472-3 0  9996
2 48602  53.0547 249.2746 0001305  95.6431 264.4706 15.06422611225968
STARLINK-2714           
1 48603U 21041BC  25163.54075369  .00004063  00000+0  29135-3 0  9990
2 48603  53.0538 244.3609 0000790  87.9387 272.1693 15.06417726226035
STARLINK-2757           
1 48604U 21041BD  25163.74169416  .00001344  00000+0  10912-3 0  9992
2 48604  53.0554 273.4631 0001319  89.6049 270.5091 15.06402597225644
STARLINK-2739           
1 48639U 21044B   25163.54680577  .00016603  00000+0  11304-2 0  9996
2 48639  53.0534 249.3470 0000782  65.7986 294.3085 15.06414744223968
STARLINK-2736           
1 48640U 21044C   25162.54427956  .00007641  00000+0  53135-3 0  9998
2 48640  53.0550 254.1176 0001615  97.9362 262.1810 15.06394689223746
STARLINK-2754           
1 48641U 21044D   25162.55666559  .00000789  00000+0  71889-4 0  9997
2 48641  53.0550 258.7788 0001318  95.6827 264.4312 15.06397052223746
STARLINK-2646           
1 48642U 21044E   25163.63296121  .00002195  00000+0  16620-3 0  9996
2 48642  53.0542 253.9573 0001304  89.7853 270.3285 15.06397018223843
STARLINK-2704           
1 48643U 21044F   25162.55203472  .00007473  00000+0  52020-3 0  9992
2 48643  53.0542 258.7913 0000666  97.2071 262.8994 15.06386529223748
STARLINK-2695           
1 48644U 21044G   25163.54450140  .00003281  00000+0  23907-3 0  9994
2 48644  53.0538 254.3455 0001183  93.9837 266.1287 15.06395141223848
STARLINK-2732           
1 48646U 21044J   25163.53712694  .00004035  00000+0  28962-3 0  9994
2 48646  53.0539 254.3808 0001433  90.8821 269.2332 15.06400706223894
STARLINK-2521           
1 48648U 21044L   25163.54820443  .00001805  00000+0  14002-3 0  9991
2 48648  53.0555 254.4951 0001240  89.2197 270.8934 15.06402001223838
STARLINK-2673           
1 48649U 21044M   25162.66724225  .00004223  00000+0  30230-3 0  9993
2 48649  53.0544 258.2844 0001222  97.5649 262.5479 15.06391770222857
STARLINK-2672           
1 48650U 21044N   25163.52606772  .00000850  00000+0  75936-4 0  9992
2 48650  53.0547 254.4295 0001342  94.4968 265.6174 15.06392773223821
STARLINK-2731           
1 48651U 21044P   25162.65987597  .00002625  00000+0  19501-3 0  9990
2 48651  53.0542 258.3184 0001107  89.5422 270.5694 15.06403275222850
STARLINK-2727           
1 48652U 21044Q   25163.65138771  .00002024  00000+0  15470-3 0  9998
2 48652  53.0549 253.8689 0001325  85.7214 274.3927 15.06399738223846
STARLINK-2720           
1 48653U 21044R   25162.58614860 -.00000857  00000+0 -38624-4 0  9999
2 48653  53.0552 258.6498 0001255  72.0121 288.1005 15.06401178223684
STARLINK-2651           
1 48654U 21044S   25162.64881404  .00004732  00000+0  33643-3 0  9996
2 48654  53.0541 258.3717 0001358  77.4885 282.6255 15.06393485222859
STARLINK-2657           
1 48655U 21044T   25163.57398890  .00001859  00000+0  14369-3 0  9993
2 48655  53.0549 254.2192 0001163  84.5836 275.5286 15.06394757223836
STARLINK-2701           
1 48656U 21044U   25163.63664491  .00003302  00000+0  24046-3 0  9992
2 48656  53.0538 253.9330 0001028  98.3250 261.7855 15.06395853223846
STARLINK-2734           
1 48657U 21044V   25162.66992078 -.00002930  00000+0 -17794-3 0  9990
2 48657  53.0547 257.9154 0001381  94.6457 265.4690 15.06395418222861
STARLINK-2647           
1 48658U 21044W   25163.23119419  .00002026  00000+0  15492-3 0  9992
2 48658  53.0558 255.7542 0001167  98.7377 261.3744 15.06391169223842
STARLINK-2717           
1 48659U 21044X   25163.69192656 -.00000677  00000+0 -26587-4 0  9997
2 48659  53.0542 253.6849 0001477 108.9919 251.1230 15.06390614223855
STARLINK-2726           
1 48662U 21044AA  25162.49124185  .00000111  00000+0  26341-4 0  9999
2 48662  53.0563 249.0799 0001404  89.3617 270.7533 15.06394610223811
STARLINK-2667           
1 48663U 21044AB  25163.54910592  .00002774  00000+0  20504-3 0  9993
2 48663  53.0543 244.3292 0001088  95.3224 264.7889 15.06394692223979
STARLINK-2666           
1 48666U 21044AE  25162.50972235 -.00000027  00000+0  17094-4 0  9994
2 48666  53.0550 249.4645 0000931  94.1547 265.9548 15.06399231223866
STARLINK-2735           
1 48667U 21044AF  25163.20999618  .00006959  00000+0  48564-3 0  9991
2 48667  53.0536 245.8484 0001107  96.2820 263.8295 15.06398846223929
STARLINK-2738           
1 48668U 21044AG  25163.53804873  .00001079  00000+0  91324-4 0  9997
2 48668  53.0547 244.3743 0001178  89.2635 270.8489 15.06392538224036
STARLINK-2707           
1 48669U 21044AH  25162.60550552  .00000054  00000+0  22486-4 0  9992
2 48669  53.0548 248.5623 0001251  96.9913 263.1218 15.06397452222984
STARLINK-2763           
1 48670U 21044AJ  25163.53067278  .00001899  00000+0  14634-3 0  9998
2 48670  53.0542 244.4098 0001247  96.6930 263.4201 15.06394114223968
STARLINK-2745           
1 48671U 21044AK  25162.49496283  .00000503  00000+0  52676-4 0  9995
2 48671  53.0547 249.3710 0001306  92.7280 267.3858 15.06396462223802
STARLINK-2705           
1 48672U 21044AL  25163.52330014  .00005068  00000+0  35887-3 0  9995
2 48672  53.0540 244.4419 0001024  77.1224 282.9880 15.06402129224021
STARLINK-2711           
1 48673U 21044AM  25162.52441589  .00002138  00000+0  16245-3 0  9997
2 48673  53.0548 248.9272 0001214  77.0700 283.0425 15.06386353223874
STARLINK-2712           
1 48674U 21044AN  25162.53179856  .00000521  00000+0  53877-4 0  9991
2 48674  53.0548 249.0080 0001242  93.5138 266.5993 15.06394378223875
STARLINK-2746           
1 48676U 21044AQ  25162.57970321 -.00001327  00000+0 -70207-4 0  9996
2 48676  53.0547 248.6775 0001035  82.9297 277.1810 15.06393905222982
STARLINK-2615           
1 48678U 21044AS  25163.23579818  .00002045  00000+0  15617-3 0  9997
2 48678  53.0545 245.7313 0001119  86.4372 273.6744 15.06389417223929
STARLINK-2648           
1 48679U 21044AT  25163.49750262  .00000633  00000+0  61385-4 0  9995
2 48679  53.0544 244.5615 0001111  89.8594 270.2522 15.06398202223969
STARLINK-2725           
1 48681U 21044AV  25162.43137187  .00000275  00000+0  37365-4 0  9999
2 48681  53.0545 219.5857 0001118  89.6144 270.4973 15.06397878224274
STARLINK-2743           
1 48682U 21044AW  25162.82669689  .00023471  00000+0  15883-2 0  9992
2 48682  53.0545 207.7313 0001339  81.7555 278.3586 15.06425030223576
STARLINK-2756           
1 48683U 21044AX  25163.51224289  .00001266  00000+0  10389-3 0  9998
2 48683  53.0538 204.5027 0001180  87.9396 272.1728 15.06397118224522
STARLINK-2741           
1 48684U 21044AY  25163.13678151  .00001318  00000+0  10742-3 0  9999
2 48684  53.0548 221.5332 0001174 100.2738 259.8384 15.06385070224315
STARLINK-2751           
1 48685U 21044AZ  25163.15104120  .00002527  00000+0  18859-3 0  9992
2 48685  53.0536 206.1593 0001106  99.6209 260.4905 15.06378645224474
STARLINK-2629           
1 48686U 21044BA  25163.41044929  .00002880  00000+0  21216-3 0  9995
2 48686  53.0524 210.2289 0001275  73.9578 286.1551 15.06401734224491
STARLINK-2627           
1 48687U 21044BB  25163.38556004 -.00001048  00000+0 -51510-4 0  9992
2 48687  53.0549 200.0600 0000792  87.2459 272.8621 15.06378382224573
STARLINK-2742           
1 48688U 21044BC  25162.52671815 -.00001383  00000+0 -73977-4 0  9999
2 48688  53.0538 203.9150 0001025  78.0438 282.0666 15.06397930224447
STARLINK-2740           
1 48690U 21044BE  25162.86997287  .00000495  00000+0  52108-4 0  9997
2 48690  53.0544 217.3751 0001216  87.2660 272.8468 15.06390013223445
STARLINK-2750           
1 48691U 21044BF  25161.84757806 -.00000535  00000+0 -17025-4 0  9992
2 48691  53.0556 216.9631 0001377  83.5808 276.5338 15.06394737223367
STARLINK-2752           
1 48692U 21044BG  25163.42519682 -.00001972  00000+0 -11363-3 0  9991
2 48692  53.0537 210.0053 0000708  70.4257 289.6808 15.06378268224448
STARLINK-2618           
1 48693U 21044BH  25163.43296939  .00001823  00000+0  14123-3 0  9990
2 48693  53.0543 214.8494 0000982  87.8867 272.2235 15.06395230224372
STARLINK-2748           
1 48694U 21044BJ  25163.13579733  .00001417  00000+0  11404-3 0  9992
2 48694  53.0541 221.1697 0001139  93.0899 267.0220 15.06390295224255
STARLINK-2616           
1 48695U 21044BK  25162.49539229 -.00001240  00000+0 -64365-4 0  9998
2 48695  53.0541 224.1068 0001039  83.0542 277.0565 15.06398898224221
